{
    "links": {
        "self": "http://www.neowsapp.com/rest/v1/neo/3629114?api_key=iIulBulltgU6a56xZRHN4H3l9WmuAYTsLGpBGhQ2"
    },
    "id": "3629114",
    "neo_reference_id": "3629114",
    "name": "(2013 EQ)",
    "designation": "2013 EQ",
    "nasa_jpl_url": "http://ssd.jpl.nasa.gov/sbdb.cgi?sstr=3629114",
    "absolute_magnitude_h": 23.9,
    "estimated_diameter": {
        "kilometers": {
            "estimated_diameter_min": 0.04411182,
            "estimated_diameter_max": 0.0986370281
        },
        "meters": {
            "estimated_diameter_min": 44.1118199997,
            "estimated_diameter_max": 98.6370281305
        },
        "miles": {
            "estimated_diameter_min": 0.0274098057,
            "estimated_diameter_max": 0.0612901888
        },
        "feet": {
            "estimated_diameter_min": 144.7238235278,
            "estimated_diameter_max": 323.6123073718
        }
    },
    "is_potentially_hazardous_asteroid": false,
    "close_approach_data": [
        {
            "close_approach_date": "2013-03-15",
            "close_approach_date_full": "2013-Mar-15 11:43",
            "epoch_date_close_approach": 1363347780000,
            "relative_velocity": {
                "kilometers_per_second": "6.6298644686",
                "kilometers_per_hour": "23867.5120869675",
                "miles_per_hour": "14830.343829816"
            },
            "miss_distance": {
                "astronomical": "0.1164941087",
                "lunar": "45.3162082843",
                "kilometers": "17427270.529068469",
                "miles": "10828803.7684601122"
            },
            "orbiting_body": "Earth"
        }
    ],
    "orbital_data": {
        "orbit_id": "7",
        "orbit_determination_date": "2017-04-06 08:46:37",
        "first_observation_date": "2013-03-03",
        "last_observation_date": "2013-03-19",
        "data_arc_in_days": 16,
        "observations_used": 26,
        "orbit_uncertainty": "8",
        "minimum_orbit_intersection": ".0945656",
        "jupiter_tisserand_invariant": "3.359",
        "epoch_osculation": "2456359.5",
        "eccentricity": ".5344394518709776",
        "semi_major_axis": "2.333409544272869",
        "inclination": "4.264220873099355",
        "ascending_node_longitude": "341.7766316448489",
        "orbital_period": "1301.921747984809",
        "perihelion_distance": "1.086343426441169",
        "perihelion_argument": "181.7514802566665",
        "aphelion_distance": "3.580475662104569",
        "perihelion_time": "2456359.796582916568",
        "mean_anomaly": "359.9179905780591",
        "mean_motion": ".2765143147483549",
        "equinox": "J2000",
        "orbit_class": {
            "orbit_class_type": "AMO",
            "orbit_class_description": "Near-Earth asteroid orbits similar to that of 1221 Amor",
            "orbit_class_range": "1.017 AU < q (perihelion) < 1.3 AU"
        }
    },
    "is_sentry_object": false
}